{"spkid": "50346483", "covariance": {"labels": ["e", "q", "tp", "node", "peri", "i"], "data": [["2.563205410146983E-15", "-3.016968698814193E-15", "8.408231242808583E-14", "-2.341402736409782E-14", "-1.714023070893222E-13", "-1.140479323691501E-13"], ["-3.016968698814193E-15", "3.551403323108752E-15", "-9.93531229948329E-14", "2.791686382063048E-14", "1.998055264497125E-13", "1.34770130186163E-13"], ["8.408231242808583E-14", "-9.93531229948329E-14", "1.334913751547739E-10", "-2.097750706996654E-11", "1.114603609583457E-10", "-4.07611877928712E-11"], ["-2.341402736409782E-14", "2.791686382063048E-14", "-2.097750706996654E-11", "3.605057883648664E-11", "-4.733563492215581E-11", "1.640812268251961E-11"], ["-1.714023070893222E-13", "1.998055264497125E-13", "1.114603609583457E-10", "-4.733563492215581E-11", "1.538497151962519E-10", "-3.584139093107399E-11"], ["-1.140479323691501E-13", "1.34770130186163E-13", "-4.07611877928712E-11", "1.640812268251961E-11", "-3.584139093107399E-11", "2.40624604833846E-10"]], "elements": [{"label": "e", "units": null, "value": ".4420714868490254", "title": "eccentricity", "sigma": 5.0628108893647e-08, "name": "e"}, {"title": "perihelion distance", "value": ".6535807126325788", "units": "au", "sigma": 5.95936517014082e-08, "name": "q", "label": "q"}, {"sigma": 1.15538467687075e-05, "name": "tp", "title": "time of perihelion passage", "value": "2456720.921913841180", "units": "TDB", "label": "tp"}, {"label": "node", "name": "om", "sigma": 6.004213423629e-06, "value": "9.065903230409438", "title": "longitude of the ascending node", "units": "deg"}, {"label": "peri", "sigma": 1.24036170207021e-05, "name": "w", "title": "argument of perihelion", "value": "256.0804936958488", "units": "deg"}, {"name": "i", "sigma": 1.55120793201249e-05, "units": "deg", "title": "inclination", "value": "19.53691859205742", "label": "i"}], "epoch": "2456726.5"}, "elements": [{"label": "e", "units": null, "title": "eccentricity", "value": ".442014998893772", "name": "e", "sigma": "5.0586E-8"}, {"name": "a", "sigma": "5.8925E-10", "units": "au", "value": "1.171720492537109", "title": "semi-major axis", "label": "a"}, {"units": "au", "value": ".6538024603245087", "title": "perihelion distance", "name": "q", "sigma": "5.9445E-8", "label": "q"}, {"label": "i", "sigma": "1.5511E-5", "name": "i", "units": "deg", "title": "inclination; angle with respect to x-y ecliptic plane", "value": "19.53298023569772"}, {"sigma": "6.0123E-6", "name": "om", "units": "deg", "title": "longitude of the ascending node", "value": "8.977182799176061", "label": "node"}, {"label": "peri", "sigma": "1.2422E-5", "name": "w", "units": "deg", "title": "argument of perihelion", "value": "256.1880923021311"}, {"label": "M", "sigma": "9.4901E-6", "name": "ma", "units": "deg", "title": "mean anomaly", "value": "242.2555076130034"}, {"label": "tp", "name": "tp", "sigma": "1.2231E-5", "value": "2461352.020908645139", "title": "time of perihelion passage", "units": "TDB"}, {"value": "463.2703068009826", "title": "sidereal orbital period", "units": "d", "name": "per", "sigma": "3.4946E-7", "label": "period"}, {"value": ".7770841228437576", "title": "mean motion", "units": "deg/d", "sigma": "5.8618E-10", "name": "n", "label": "n"}, {"units": "au", "value": "1.689638524749709", "title": "aphelion distance", "name": "ad", "sigma": "8.4971E-10", "label": "Q"}], "epoch": "2461200.5"}